[ {"name": "FENGYUN 3D", "line1": "1 43010U 17072A   26156.23711023  .00000062  00000+0  51344-4 0  9992", "line2": "2 43010  99.0125 130.4439 0002657  80.4891 279.6584 14.19737050443290"}, {"name": "NOAA 20 (JPSS-1)", "line1": "1 43013U 17073A   26156.15961424  .00000071  00000+0  54697-4 0  9993", "line2": "2 43013  98.7769  95.7293 0000607  37.6470 322.4749 14.19509399442768"}, {"name": "GOES 17", "line1": "1 43226U 18022A   26156.04644457 -.00000170  00000+0  00000+0 0  9991", "line2": "2 43226   0.9065  85.9382 0000732   7.4913  87.2861  1.00271493 30305"}, {"name": "SENTINEL-3B", "line1": "1 43437U 18039A   26155.70658990  .00000142  00000+0  76756-4 0  9996", "line2": "2 43437  98.6251 223.4174 0000951  75.6622 284.4664 14.26738189422348"}, {"name": "FENGYUN 2H", "line1": "1 43491U 18050A   26156.07985617 -.00000119  00000+0  00000+0 0  9998", "line2": "2 43491   3.0002  79.2144 0001424 127.3189 155.1892  1.00271930 29316"}, {"name": "METOP-C", "line1": "1 43689U 18087A   26156.17256321  .00000107  00000+0  68636-4 0  9991", "line2": "2 43689  98.6648 215.9953 0001297 142.6213 217.5055 14.21508767393129"}, {"name": "GEO-KOMPSAT-2A", "line1": "1 43823U 18100A   26155.72968678 -.00000332  00000+0  00000+0 0  9999", "line2": "2 43823   0.0505 138.9461 0002314 305.7918 199.3806  1.00269705 27507"}, {"name": "METEOR-M2 2", "line1": "1 44387U 19038A   26156.23256668  .00000133  00000+0  77540-4 0  9998", "line2": "2 44387  98.9142 143.3419 0002351  65.4018 294.7405 14.24362709359591"}, {"name": "ARKTIKA-M 1", "line1": "1 47719U 21016A   26153.03917935 -.00000200  00000+0  00000+0 0  9993", "line2": "2 47719  63.2379  59.8266 7283239 269.8643  14.6915  2.00628509 38489"}, {"name": "FENGYUN 3E", "line1": "1 49008U 21062A   26156.22231355 -.00000140  00000+0 -45167-4 0  9998", "line2": "2 49008  98.7489 159.7637 0002659 104.4234 255.7237 14.19902366254885"}, {"name": "GOES 18", "line1": "1 51850U 22021A   26156.10828294  .00000109  00000+0  00000+0 0  9998", "line2": "2 51850   0.0403 134.5400 0000598 348.0435  32.9433  1.00271887  6479"}, {"name": "NOAA 21 (JPSS-2)", "line1": "1 54234U 22150A   26156.12247066  .00000077  00000+0  57067-4 0  9998", "line2": "2 54234  98.7057  95.1144 0000973 185.4094 174.7071 14.19563275184834"}, {"name": "METEOSAT-12 (MTG-I1)", "line1": "1 54743U 22170C   26156.13538513  .00000004  00000+0  00000+0 0  9996", "line2": "2 54743   0.7247  20.9134 0003563  69.7144 211.2598  1.00271474 12852"}, {"name": "TIANMU-1 03", "line1": "1 55973U 23039A   26156.21398059  .00018307  00000+0  36490-3 0  9996", "line2": "2 55973  97.5234 329.7178 0004030 128.5580 231.6031 15.46931396178980"}, {"name": "TIANMU-1 04", "line1": "1 55974U 23039B   26156.20803412  .00018880  00000+0  36870-3 0  9998", "line2": "2 55974  97.5171 328.8648 0004732 126.4899 233.6787 15.47516301178999"}, {"name": "TIANMU-1 05", "line1": "1 55975U 23039C   26156.19417372  .00017631  00000+0  35241-3 0  9997", "line2": "2 55975  97.5218 329.3166 0003599 144.1429 216.0062 15.46859683178969"}, {"name": "TIANMU-1 06", "line1": "1 55976U 23039D   26156.14602134  .00018477  00000+0  36210-3 0  9991", "line2": "2 55976  97.5223 329.8904 0003951 140.4476 219.7062 15.47422845178983"}, {"name": "FENGYUN 3G", "line1": "1 56232U 23055A   26156.20376128  .00031005  00000+0  47070-3 0  9991", "line2": "2 56232  49.9931  47.8101 0005499 148.2470 211.8830 15.54250289178144"}, {"name": "METEOR-M2 3", "line1": "1 57166U 23091A   26156.22413882  .00000007  00000+0  22001-4 0  9995", "line2": "2 57166  98.6086 211.4467 0003663 188.1691 171.9429 14.24045797152814"}, {"name": "TIANMU-1 07", "line1": "1 57399U 23101A   26156.19497172  .00007817  00000+0  27448-3 0  9990", "line2": "2 57399  97.2593 207.1398 0003311 147.0096 213.1352 15.29664963159817"}, {"name": "TIANMU-1 08", "line1": "1 57400U 23101B   26156.16164751  .00006584  00000+0  23156-3 0  9996", "line2": "2 57400  97.2582 206.8796 0004923 144.9613 215.1952 15.29666945159806"}, {"name": "TIANMU-1 09", "line1": "1 57401U 23101C   26156.14528868  .00007890  00000+0  27673-3 0  9997", "line2": "2 57401  97.2540 206.2855 0003655 155.0688 205.0730 15.29695697159805"}, {"name": "TIANMU-1 10", "line1": "1 57402U 23101D   26156.17811479  .00007826  00000+0  27469-3 0  9996", "line2": "2 57402  97.2620 207.3558 0005253 158.7807 201.3653 15.29666989159801"}, {"name": "FENGYUN 3F", "line1": "1 57490U 23111A   26156.13604163  .00000073  00000+0  54818-4 0  9996", "line2": "2 57490  98.6837 226.3690 0001562 102.2694 257.8658 14.19937058147150"}, {"name": "ARKTIKA-M 2", "line1": "1 58584U 23198A   26154.30372208  .00000150  00000+0  00000+0 0  9990", "line2": "2 58584  63.2209 155.9142 6898549 267.4684  18.7857  2.00591941 18047"}, {"name": "TIANMU-1 11", "line1": "1 58645U 23205A   26156.12651956  .00007029  00000+0  26869-3 0  9996", "line2": "2 58645  97.3449 177.8736 0010239  55.3902 304.8301 15.26866403135687"}, {"name": "TIANMU-1 12", "line1": "1 58646U 23205B   26156.16212407  .00007186  00000+0  27509-3 0  9991", "line2": "2 58646  97.3438 177.6669 0008157  43.0773 317.1103 15.26827800135679"}, {"name": "TIANMU-1 13", "line1": "1 58647U 23205C   26156.12761678  .00007089  00000+0  27264-3 0  9997", "line2": "2 58647  97.3465 177.9037 0007373  24.8739 335.2854 15.26681989135669"}, {"name": "TIANMU-1 14", "line1": "1 58648U 23205D   26156.11317531  .00006882  00000+0  26436-3 0  9992", "line2": "2 58648  97.3402 177.0809 0008363  28.1438 332.0251 15.26726698135665"}, {"name": "TIANMU-1 19", "line1": "1 58660U 23208A   26156.13406215  .00009697  00000+0  32234-3 0  9999", "line2": "2 58660  97.4496 272.3750 0004880  16.3233 343.8164 15.31384957135486"}, {"name": "TIANMU-1 20", "line1": "1 58661U 23208B   26156.18122472  .00009631  00000+0  30838-3 0  9991", "line2": "2 58661  97.4438 273.0452 0007139  18.8205 341.3299 15.32578011135586"}]