OBJECT_NAME,OBJECT_ID,EPOCH,MEAN_MOTION,ECCENTRICITY,INCLINATION,RA_OF_ASC_NODE,ARG_OF_PERICENTER,MEAN_ANOMALY,EPHEMERIS_TYPE,CLASSIFICATION_TYPE,NORAD_CAT_ID,ELEMENT_SET_NO,REV_AT_EPOCH,BSTAR,MEAN_MOTION_DOT,MEAN_MOTION_DDOT
FENGYUN 3D,2017-072A,2026-06-05T05:41:26.323872,14.19737050,.0002657,99.0125,130.4439,80.4891,279.6584,0,U,43010,999,44329,.51344E-4,.62E-6,0
NOAA 20 (JPSS-1),2017-073A,2026-06-05T03:49:50.670336,14.19509399,.0000607,98.7769,95.7293,37.6470,322.4749,0,U,43013,999,44276,.54697E-4,.71E-6,0
GOES 17,2018-022A,2026-06-05T01:06:52.810848,1.00271493,.0000732,0.9065,85.9382,7.4913,87.2861,0,U,43226,999,3030,0,-.17E-5,0
SENTINEL-3B,2018-039A,2026-06-04T16:57:29.367360,14.26738189,.0000951,98.6251,223.4174,75.6622,284.4664,0,U,43437,999,42234,.76756E-4,.142E-5,0
FENGYUN 2H,2018-050A,2026-06-05T01:54:59.573088,1.00271930,.0001424,3.0002,79.2144,127.3189,155.1892,0,U,43491,999,2931,0,-.119E-5,0
METOP-C,2018-087A,2026-06-05T04:08:29.461344,14.21508767,.0001297,98.6648,215.9953,142.6213,217.5055,0,U,43689,999,39312,.68636E-4,.107E-5,0
GEO-KOMPSAT-2A,2018-100A,2026-06-04T17:30:44.937792,1.00269705,.00023147,0.0505,138.9461,305.7918,199.3806,0,U,43823,999,2750,0,-.332E-5,0
METEOR-M2 2,2019-038A,2026-06-05T05:34:53.761152,14.24362709,.0002351,98.9142,143.3419,65.4018,294.7405,0,U,44387,999,35959,.7754E-4,.133E-5,0
ARKTIKA-M 1,2021-016A,2026-06-02T00:56:25.095840,2.00628509,.72832396,63.2379,59.8266,269.8643,14.6915,0,U,47719,999,3848,0,-.2E-5,0
FENGYUN 3E,2021-062A,2026-06-05T05:20:07.890720,14.19902366,.0002659,98.7489,159.7637,104.4234,255.7237,0,U,49008,999,25488,-.45167E-4,-.14E-5,0
GOES 18,2022-021A,2026-06-05T02:35:55.646016,1.00271887,.0000598,0.0403,134.5400,348.0435,32.9433,0,U,51850,999,647,0,.109E-5,0
NOAA 21 (JPSS-2),2022-150A,2026-06-05T02:56:21.465024,14.19563275,.0000973,98.7057,95.1144,185.4094,174.7071,0,U,54234,999,18483,.57067E-4,.77E-6,0
METEOSAT-12 (MTG-I1),2022-170C,2026-06-05T03:14:57.275232,1.00271474,.0003563,0.7247,20.9134,69.7144,211.2598,0,U,54743,999,1285,0,.4E-7,0
TIANMU-1 03,2023-039A,2026-06-05T05:08:07.922976,15.46931396,.000403,97.5234,329.7178,128.5580,231.6031,0,U,55973,999,17898,.3649E-3,.18307E-3,0
TIANMU-1 04,2023-039B,2026-06-05T04:59:34.147968,15.47516301,.0004732,97.5171,328.8648,126.4899,233.6787,0,U,55974,999,17899,.3687E-3,.1888E-3,0
TIANMU-1 05,2023-039C,2026-06-05T04:39:36.609408,15.46859683,.0003599,97.5218,329.3166,144.1429,216.0062,0,U,55975,999,17896,.35241E-3,.17631E-3,0
TIANMU-1 06,2023-039D,2026-06-05T03:30:16.243776,15.47422845,.0003951,97.5223,329.8904,140.4476,219.7062,0,U,55976,999,17898,.3621E-3,.18477E-3,0
FENGYUN 3G,2023-055A,2026-06-05T04:53:24.974592,15.54250289,.0005499,49.9931,47.8101,148.2470,211.8830,0,U,56232,999,17814,.4707E-3,.31005E-3,0
METEOR-M2 3,2023-091A,2026-06-05T05:22:45.594048,14.24045797,.0003663,98.6086,211.4467,188.1691,171.9429,0,U,57166,999,15281,.22001E-4,.7E-7,0
TIANMU-1 07,2023-101A,2026-06-05T04:40:45.556608,15.29664963,.0003311,97.2593,207.1398,147.0096,213.1352,0,U,57399,999,15981,.27448E-3,.7817E-4,0
TIANMU-1 08,2023-101B,2026-06-05T03:52:46.344864,15.29666945,.0004923,97.2582,206.8796,144.9613,215.1952,0,U,57400,999,15980,.23156E-3,.6584E-4,0
TIANMU-1 09,2023-101C,2026-06-05T03:29:12.941952,15.29695697,.0003655,97.2540,206.2855,155.0688,205.0730,0,U,57401,999,15980,.27673E-3,.789E-4,0
TIANMU-1 10,2023-101D,2026-06-05T04:16:29.117856,15.29666989,.0005253,97.2620,207.3558,158.7807,201.3653,0,U,57402,999,15980,.27469E-3,.7826E-4,0
FENGYUN 3F,2023-111A,2026-06-05T03:15:53.996832,14.19937058,.0001562,98.6837,226.3690,102.2694,257.8658,0,U,57490,999,14715,.54818E-4,.73E-6,0
ARKTIKA-M 2,2023-198A,2026-06-03T07:17:21.587712,2.00591941,.68985494,63.2209,155.9142,267.4684,18.7857,0,U,58584,999,1804,0,.15E-5,0
TIANMU-1 11,2023-205A,2026-06-05T03:02:11.289984,15.26866403,.0010239,97.3449,177.8736,55.3902,304.8301,0,U,58645,999,13568,.26869E-3,.7029E-4,0
TIANMU-1 12,2023-205B,2026-06-05T03:53:27.519648,15.26827800,.0008157,97.3438,177.6669,43.0773,317.1103,0,U,58646,999,13567,.27509E-3,.7186E-4,0
TIANMU-1 13,2023-205C,2026-06-05T03:03:46.089792,15.26681989,.0007373,97.3465,177.9037,24.8739,335.2854,0,U,58647,999,13566,.27264E-3,.7089E-4,0
TIANMU-1 14,2023-205D,2026-06-05T02:42:58.346784,15.26726698,.0008363,97.3402,177.0809,28.1438,332.0251,0,U,58648,999,13566,.26436E-3,.6882E-4,0
TIANMU-1 19,2023-208A,2026-06-05T03:13:02.969760,15.31384957,.000488,97.4496,272.3750,16.3233,343.8164,0,U,58660,999,13548,.32234E-3,.9697E-4,0
TIANMU-1 20,2023-208B,2026-06-05T04:20:57.815808,15.32578011,.0007139,97.4438,273.0452,18.8205,341.3299,0,U,58661,999,13558,.30838E-3,.9631E-4,0
